[
  {
    "contactPersonName": "Kanit Gohel 1",
    "contactPersonPhone": "7805464102",
    "phone": "9113810416",
    "pincode": "400001",
    "state": "Maharashtra",
    "storeHours": "9 AM - 9 PM",
    "storeName": "Dmart"
  },
  {
    "contactPersonName": "Kanit Gohel 2",
    "contactPersonPhone": "4808758806",
    "phone": "5090379980",
    "pincode": "400002",
    "state": "Maharashtra",
    "storeHours": "7 AM - 10 PM",
    "storeName": "Dmart"
  },
  {
    "contactPersonName": "Kanit Gohel 3",
    "contactPersonPhone": "8283339673",
    "phone": "1304234973",
    "pincode": "400003",
    "state": "Maharashtra",
    "storeHours": "24 Hours",
    "storeName": "Dmart"
  },
  {
    "contactPersonName": "Kanit Gohel 4",
    "contactPersonPhone": "7400000289",
    "phone": "7181251486",
    "pincode": "400004",
    "state": "Maharashtra",
    "storeHours": "24 Hours",
    "storeName": "Dmart"
  },
  {
    "contactPersonName": "Kanit Gohel 5",
    "contactPersonPhone": "6022461794",
    "phone": "9632223813",
    "pincode": "400005",
    "state": "Maharashtra",
    "storeHours": "10 AM - 10 PM",
    "storeName": "Dmart"
  },
  {
    "contactPersonName": "Kanit Gohel 6",
    "contactPersonPhone": "2275316435",
    "phone": "5103966068",
    "pincode": "400006",
    "state": "Maharashtra",
    "storeHours": "10 AM - 10 PM",
    "storeName": "Dmart"
  },
  {
    "contactPersonName": "Kanit Gohel 7",
    "contactPersonPhone": "7591315431",
    "phone": "3477490623",
    "pincode": "400007",
    "state": "Maharashtra",
    "storeHours": "8 AM - 8 PM",
    "storeName": "Dmart"
  },
  {
    "contactPersonName": "Kanit Gohel 8",
    "contactPersonPhone": "7859094512",
    "phone": "8364602831",
    "pincode": "400008",
    "state": "Maharashtra",
    "storeHours": "8 AM - 10 PM",
    "storeName": "Dmart"
  },
  {
    "contactPersonName": "Kanit Gohel 9",
    "contactPersonPhone": "2908539255",
    "phone": "2807934785",
    "pincode": "400009",
    "state": "Maharashtra",
    "storeHours": "8 AM - 8 PM",
    "storeName": "Reliance"
  },
  {
    "contactPersonName": "Kanit Gohel 10",
    "contactPersonPhone": "5287816812",
    "phone": "9564233260",
    "pincode": "400010",
    "state": "Maharashtra",
    "storeHours": "9 AM - 9 PM",
    "storeName": "Reliance"
  },
  {
    "contactPersonName": "Kanit Gohel 11",
    "contactPersonPhone": "1835401562",
    "phone": "6853717130",
    "pincode": "400011",
    "state": "Maharashtra",
    "storeHours": "9 AM - 9 PM",
    "storeName": "Reliance"
  },
  {
    "contactPersonName": "Kanit Gohel 12",
    "contactPersonPhone": "9057464686",
    "phone": "2634766014",
    "pincode": "400012",
    "state": "Maharashtra",
    "storeHours": "10 AM - 10 PM",
    "storeName": "Reliance"
  },
  {
    "contactPersonName": "Kanit Gohel 13",
    "contactPersonPhone": "4199631973",
    "phone": "8111216515",
    "pincode": "400013",
    "state": "Maharashtra",
    "storeHours": "8 AM - 10 PM",
    "storeName": "Reliance"
  },
  {
    "contactPersonName": "Kanit Gohel 14",
    "contactPersonPhone": "2537201615",
    "phone": "3978374355",
    "pincode": "400014",
    "state": "Maharashtra",
    "storeHours": "8 AM - 8 PM",
    "storeName": "Reliance"
  },
  {
    "contactPersonName": "Kanit Gohel 15",
    "contactPersonPhone": "6894109537",
    "phone": "9783950192",
    "pincode": "400015",
    "state": "Maharashtra",
    "storeHours": "9 AM - 11 PM",
    "storeName": "Reliance"
  },
  {
    "contactPersonName": "Kanit Gohel 16",
    "contactPersonPhone": "6672685743",
    "phone": "1850865989",
    "pincode": "400016",
    "state": "Maharashtra",
    "storeHours": "24 Hours",
    "storeName": "Reliance"
  },
  {
    "contactPersonName": "Kanit Gohel 17",
    "contactPersonPhone": "8634572138",
    "phone": "3611735110",
    "pincode": "400017",
    "state": "Maharashtra",
    "storeHours": "9 AM - 9 PM",
    "storeName": "Reliance"
  },
  {
    "contactPersonName": "Kanit Gohel 18",
    "contactPersonPhone": "8136223283",
    "phone": "9564790707",
    "pincode": "400018",
    "state": "Maharashtra",
    "storeHours": "9 AM - 9 PM",
    "storeName": "7 Eleven"
  },
  {
    "contactPersonName": "Kanit Gohel 19",
    "contactPersonPhone": "1034371235",
    "phone": "1974746827",
    "pincode": "400019",
    "state": "Maharashtra",
    "storeHours": "9 AM - 9 PM",
    "storeName": "7 Eleven"
  },
  {
    "contactPersonName": "Kanit Gohel 20",
    "contactPersonPhone": "8245883057",
    "phone": "6256306333",
    "pincode": "400020",
    "state": "Maharashtra",
    "storeHours": "9 AM - 9 PM",
    "storeName": "7 Eleven"
  },
  {
    "contactPersonName": "Kanit Gohel 21",
    "contactPersonPhone": "2511898288",
    "phone": "7102009248",
    "pincode": "400021",
    "state": "Maharashtra",
    "storeHours": "6 AM - 11 PM",
    "storeName": "7 Eleven"
  },
  {
    "contactPersonName": "Kanit Gohel 22",
    "contactPersonPhone": "3340289800",
    "phone": "1172406787",
    "pincode": "400022",
    "state": "Maharashtra",
    "storeHours": "10 AM - 10 PM",
    "storeName": "7 Eleven"
  },
  {
    "contactPersonName": "Kanit Gohel 23",
    "contactPersonPhone": "3748235111",
    "phone": "8461590950",
    "pincode": "400023",
    "state": "Maharashtra",
    "storeHours": "8 AM - 10 PM",
    "storeName": "7 Eleven"
  },
  {
    "contactPersonName": "Kanit Gohel 24",
    "contactPersonPhone": "1603518342",
    "phone": "5899897274",
    "pincode": "400024",
    "state": "Maharashtra",
    "storeHours": "8 AM - 10 PM",
    "storeName": "7 Eleven"
  },
  {
    "contactPersonName": "Kanit Gohel 25",
    "contactPersonPhone": "9851794018",
    "phone": "5842508226",
    "pincode": "400025",
    "state": "Maharashtra",
    "storeHours": "10 AM - 10 PM",
    "storeName": "Nature's Basket"
  },
  {
    "contactPersonName": "Kanit Gohel 26",
    "contactPersonPhone": "8706186369",
    "phone": "3695972903",
    "pincode": "400026",
    "state": "Maharashtra",
    "storeHours": "9 AM - 11 PM",
    "storeName": "Nature's Basket"
  },
  {
    "contactPersonName": "Kanit Gohel 27",
    "contactPersonPhone": "1678892778",
    "phone": "9126757104",
    "pincode": "400027",
    "state": "Maharashtra",
    "storeHours": "9 AM - 9 PM",
    "storeName": "Nature's Basket"
  },
  {
    "contactPersonName": "Kanit Gohel 28",
    "contactPersonPhone": "9152847300",
    "phone": "4623318436",
    "pincode": "400028",
    "state": "Maharashtra",
    "storeHours": "9 AM - 9 PM",
    "storeName": "Nature's Basket"
  },
  {
    "contactPersonName": "Kanit Gohel 29",
    "contactPersonPhone": "7086460525",
    "phone": "3903703356",
    "pincode": "400029",
    "state": "Maharashtra",
    "storeHours": "8 AM - 8 PM",
    "storeName": "Nature's Basket"
  },
  {
    "contactPersonName": "Kanit Gohel 30",
    "contactPersonPhone": "7863317693",
    "phone": "3252122997",
    "pincode": "400030",
    "state": "Maharashtra",
    "storeHours": "6 AM - 11 PM",
    "storeName": "Nature's Basket"
  },
  {
    "contactPersonName": "Kanit Gohel 31",
    "contactPersonPhone": "2469145336",
    "phone": "7982042529",
    "pincode": "400031",
    "state": "Maharashtra",
    "storeHours": "10 AM - 10 PM",
    "storeName": "Nature's Basket"
  },
  {
    "contactPersonName": "Kanit Gohel 32",
    "contactPersonPhone": "2603492137",
    "phone": "7035209611",
    "pincode": "400032",
    "state": "Maharashtra",
    "storeHours": "24 Hours",
    "storeName": "Nature's Basket"
  },
  {
    "contactPersonName": "Kanit Gohel 33",
    "contactPersonPhone": "3268222330",
    "phone": "1348759252",
    "pincode": "400033",
    "state": "Maharashtra",
    "storeHours": "9 AM - 9 PM",
    "storeName": "Nature's Basket"
  },
  {
    "contactPersonName": "Kanit Gohel 34",
    "contactPersonPhone": "7973979973",
    "phone": "9693973777",
    "pincode": "400034",
    "state": "Maharashtra",
    "storeHours": "6 AM - 11 PM",
    "storeName": "Urban Platter"
  },
  {
    "contactPersonName": "Kanit Gohel 35",
    "contactPersonPhone": "5156363244",
    "phone": "7409047247",
    "pincode": "400035",
    "state": "Maharashtra",
    "storeHours": "7 AM - 10 PM",
    "storeName": "Urban Platter"
  },
  {
    "contactPersonName": "Kanit Gohel 36",
    "contactPersonPhone": "4291904187",
    "phone": "8015061826",
    "pincode": "400036",
    "state": "Maharashtra",
    "storeHours": "24 Hours",
    "storeName": "Urban Platter"
  },
  {
    "contactPersonName": "Kanit Gohel 37",
    "contactPersonPhone": "2885463275",
    "phone": "9753925608",
    "pincode": "400037",
    "state": "Maharashtra",
    "storeHours": "6 AM - 11 PM",
    "storeName": "CityMart"
  },
  {
    "contactPersonName": "Kanit Gohel 38",
    "contactPersonPhone": "9019136823",
    "phone": "2518234887",
    "pincode": "400038",
    "state": "Maharashtra",
    "storeHours": "10 AM - 10 PM",
    "storeName": "QuickPick"
  },
  {
    "contactPersonName": "Kanit Gohel 39",
    "contactPersonPhone": "8972077026",
    "phone": "2447740497",
    "pincode": "400039",
    "state": "Maharashtra",
    "storeHours": "10 AM - 10 PM",
    "storeName": "CityMart"
  },
  {
    "contactPersonName": "Kanit Gohel 40",
    "contactPersonPhone": "5658837519",
    "phone": "2972994524",
    "pincode": "400040",
    "state": "Maharashtra",
    "storeHours": "8 AM - 10 PM",
    "storeName": "Daily Needs"
  },
  {
    "contactPersonName": "Kanit Gohel 41",
    "contactPersonPhone": "3541743743",
    "phone": "3000943245",
    "pincode": "400041",
    "state": "Maharashtra",
    "storeHours": "7 AM - 10 PM",
    "storeName": "GreenGrocer"
  },
  {
    "contactPersonName": "Kanit Gohel 42",
    "contactPersonPhone": "4644013713",
    "phone": "3022451792",
    "pincode": "400042",
    "state": "Maharashtra",
    "storeHours": "24 Hours",
    "storeName": "CityMart"
  },
  {
    "contactPersonName": "Kanit Gohel 43",
    "contactPersonPhone": "8635634163",
    "phone": "1901986742",
    "pincode": "400043",
    "state": "Maharashtra",
    "storeHours": "7 AM - 10 PM",
    "storeName": "Super Saver"
  },
  {
    "contactPersonName": "Kanit Gohel 44",
    "contactPersonPhone": "2513860909",
    "phone": "4860137061",
    "pincode": "400044",
    "state": "Maharashtra",
    "storeHours": "10 AM - 10 PM",
    "storeName": "Daily Needs"
  },
  {
    "contactPersonName": "Kanit Gohel 45",
    "contactPersonPhone": "6685565354",
    "phone": "1007750581",
    "pincode": "400045",
    "state": "Maharashtra",
    "storeHours": "6 AM - 11 PM",
    "storeName": "Fresh Cart"
  }
]